[{"OBJECT_NAME":"TOMORROW-R2","OBJECT_ID":"2023-084AG","EPOCH":"2026-03-09T21:19:23.098656","MEAN_MOTION":15.71879583,"ECCENTRICITY":0.00051142,"INCLINATION":97.5895,"RA_OF_ASC_NODE":222.1734,"ARG_OF_PERICENTER":248.1295,"MEAN_ANOMALY":111.9424,"EPHEMERIS_TYPE":0,"CLASSIFICATION_TYPE":"U","NORAD_CAT_ID":56962,"ELEMENT_SET_NO":999,"REV_AT_EPOCH":15332,"BSTAR":0.00081619373,"MEAN_MOTION_DOT":0.00107013,"MEAN_MOTION_DDOT":0},{"OBJECT_NAME":"STARLINK-11724 [DTC]","OBJECT_ID":"2025-111B","EPOCH":"2026-03-09T01:46:04.159200","MEAN_MOTION":15.70907606,"ECCENTRICITY":0.00020005,"INCLINATION":43.001,"RA_OF_ASC_NODE":337.4374,"ARG_OF_PERICENTER":289.1223,"MEAN_ANOMALY":70.9428,"EPHEMERIS_TYPE":0,"CLASSIFICATION_TYPE":"U","NORAD_CAT_ID":64124,"ELEMENT_SET_NO":999,"REV_AT_EPOCH":4654,"BSTAR":0.0023236262,"MEAN_MOTION_DOT":0.00309974,"MEAN_MOTION_DDOT":0}]
